OBJECT_NAME,OBJECT_ID,EPOCH,MEAN_MOTION,ECCENTRICITY,INCLINATION,RA_OF_ASC_NODE,ARG_OF_PERICENTER,MEAN_ANOMALY,EPHEMERIS_TYPE,CLASSIFICATION_TYPE,NORAD_CAT_ID,ELEMENT_SET_NO,REV_AT_EPOCH,BSTAR,MEAN_MOTION_DOT,MEAN_MOTION_DDOT
HORUS 2,2023-032A,2026-05-11T05:00:12.657312,15.23383752,.0002432,97.3539,207.3477,150.1944,209.9432,0,U,55844,999,17585,.16292E-3,.3805E-4,0
GLOBAL-19,2023-041B,2026-05-11T03:46:03.643968,15.38243996,.0004847,42.0014,57.9284,78.6804,281.4579,0,U,55982,999,17622,.25231E-3,.947E-4,0
BRO-9,2023-054H,2026-05-11T04:41:09.473856,15.80948989,.0007505,97.2990,47.0148,128.8132,231.3807,0,U,56185,999,17321,.79277E-3,.155642E-2,0
ION SCV-010,2023-054Q,2026-05-11T04:15:23.090112,15.25868753,.0012276,97.3826,21.1506,343.7862,16.2982,0,U,56192,999,17055,.12077E-3,.3025E-4,0
TELEOS-2,2023-057C,2026-05-10T13:33:12.415392,14.96379986,.0000822,9.9873,118.1130,271.9869,88.0251,0,U,56310,999,16715,.26654E-3,.3791E-4,0
SNIPE 4,2023-072B,2026-05-11T03:35:44.461824,15.40895271,.0007139,97.5296,336.0181,99.8005,260.4047,0,U,56744,999,16440,.33048E-3,.13511E-3,0
SNIPE 2,2023-072C,2026-05-11T03:58:55.146720,15.44997124,.0006274,97.5292,338.8332,123.8676,236.3170,0,U,56745,999,16452,.35956E-3,.16884E-3,0
2023-072G,2023-072G,2026-05-11T04:30:34.433856,15.48523604,.0005506,97.4952,337.6239,114.7277,245.4546,0,U,56749,999,16473,.36269E-3,.19237E-3,0
GEISAT PRECURSOR,2023-084C,2026-05-11T04:14:33.567360,15.34130033,.0007262,97.6168,270.9392,114.2452,245.9549,0,U,56934,999,16185,.17418E-3,.5673E-4,0
BLACKJACK ACES-3,2023-084U,2026-05-11T03:11:42.232416,15.18416267,.0004334,97.6155,266.0607,118.5476,241.6195,0,U,56950,999,16154,.16369E-3,.3298E-4,0
BLACKJACK ACES-2,2023-084Z,2026-05-10T22:36:16.147584,15.18272582,.0002633,97.6151,265.9537,102.7793,257.3735,0,U,56955,999,16152,.21219E-3,.4278E-4,0
BLACKJACK ACES-1,2023-084AA,2026-05-11T04:37:50.257920,15.18351508,.0002173,97.6142,265.9857,91.3410,268.8073,0,U,56956,999,11128,.22676E-3,.4587E-4,0
ION SCV-011,2023-084AB,2026-05-11T01:58:18.921216,15.28474713,.0007736,98.1389,314.9356,157.6748,202.4827,0,U,56957,999,16014,.13173E-3,.3565E-4,0
GHOST-3,2023-084AC,2026-05-10T23:25:42.940416,15.46665012,.0007182,97.6168,277.6010,74.8441,285.3602,0,U,56958,999,16226,.24038E-3,.11913E-3,0
TOMORROW-R2,2023-084AG,2026-05-11T04:06:20.536128,15.87854557,.0001282,97.5935,290.6921,306.9806,53.1348,0,U,56962,999,16315,.50876E-3,.137975E-2,0
AFR-1,2023-084AJ,2026-05-11T04:13:29.970912,15.28229880,.0012009,97.6217,266.9982,107.8306,252.4243,0,U,56964,999,16157,.12025E-3,.3235E-4,0
METEOR-M2 3,2023-091A,2026-05-11T05:03:26.727264,14.24043555,.0002769,98.6110,186.9403,280.3687,79.7180,0,U,57166,999,14925,.12193E-4,-.15E-6,0
UMKA 1 (RS40S),2023-091G,2026-05-11T04:14:23.335872,15.20390618,.0011429,97.5075,190.0238,244.8930,115.1119,0,U,57172,999,15838,.18088E-3,.3876E-4,0
2023-091H,2023-091H,2026-05-11T04:30:11.695968,15.27833319,.0008775,97.5070,194.1000,237.7059,122.3330,0,U,57173,999,15865,.26821E-3,.7221E-4,0
2023-091J,2023-091J,2026-05-11T04:07:10.596288,15.13676710,.0011645,97.5083,184.7974,276.0460,83.9445,0,U,57174,999,15803,.13162E-3,.2305E-4,0
CUBEBEL 2 (EU11S),2023-091K,2026-05-11T04:48:04.807296,15.28283727,.0008792,97.5073,194.1091,239.5277,120.5094,0,U,57175,999,15865,.26808E-3,.7318E-4,0
SITRO-AIS 5 (KATYS),2023-091L,2026-05-11T03:49:14.759040,15.28600652,.0010577,97.5081,194.7281,226.6994,133.3364,0,U,57176,999,15868,.26555E-3,.7322E-4,0
ZORKIY-2M 1,2023-091M,2026-05-11T03:56:40.627968,15.20418705,.0012077,97.5115,190.2566,241.6844,118.3174,0,U,57177,999,15837,.19441E-3,.4175E-4,0
CUBESX-HSE 3 (RS42S),2023-091N,2026-05-11T04:10:02.215200,15.30274404,.001026,97.5111,196.3178,215.7704,144.2851,0,U,57178,999,15876,.27516E-3,.7993E-4,0
MONITOR-3 (RS58S),2023-091Q,2026-05-11T04:25:36.434208,15.27092082,.0010898,97.5105,194.3773,223.5735,136.4644,0,U,57180,999,15864,.25146E-3,.6617E-4,0
MONITOR-4 (RS57S),2023-091S,2026-05-11T03:58:45.806016,15.27188742,.0010865,97.5099,194.3273,224.1261,135.9112,0,U,57182,999,15864,.23759E-3,.6266E-4,0
MONITOR-2 (RS39S),2023-091U,2026-05-11T03:39:38.922048,15.18562659,.0009969,97.5098,189.6798,236.5664,123.4617,0,U,57184,999,15833,.14759E-3,.2983E-4,0
SVYATOBOR 1 (RS60S),2023-091X,2026-05-11T03:33:38.203776,15.25977617,.0008773,97.5111,194.7755,213.9467,146.1210,0,U,57187,999,15866,.21845E-3,.5544E-4,0
