HORUS 2                 
1 55844U 23032A   26131.20847983  .00003805  00000+0  16292-3 0  9998
2 55844  97.3539 207.3477 0002432 150.1944 209.9432 15.23383752175853
GLOBAL-19               
1 55982U 23041B   26131.15698662  .00009470  00000+0  25231-3 0  9990
2 55982  42.0014  57.9284 0004847  78.6804 281.4579 15.38243996176227
BRO-9                   
1 56185U 23054H   26131.19524854  .00155642  00000+0  79277-3 0  9997
2 56185  97.2990  47.0148 0007505 128.8132 231.3807 15.80948989173218
ION SCV-010             
1 56192U 23054Q   26131.17735058  .00003025  00000+0  12077-3 0  9995
2 56192  97.3826  21.1506 0012276 343.7862  16.2982 15.25868753170552
TELEOS-2                
1 56310U 23057C   26130.56472703  .00003791  00000+0  26654-3 0  9993
2 56310   9.9873 118.1130 0000822 271.9869  88.0251 14.96379986167158
SNIPE 4                 
1 56744U 23072B   26131.14982016  .00013511  00000+0  33048-3 0  9995
2 56744  97.5296 336.0181 0007139  99.8005 260.4047 15.40895271164409
SNIPE 2                 
1 56745U 23072C   26131.16591605  .00016884  00000+0  35956-3 0  9994
2 56745  97.5292 338.8332 0006274 123.8676 236.3170 15.44997124164521
2023-072G               
1 56749U 23072G   26131.18789854  .00019237  00000+0  36269-3 0  9998
2 56749  97.4952 337.6239 0005506 114.7277 245.4546 15.48523604164736
GEISAT PRECURSOR        
1 56934U 23084C   26131.17677740  .00005673  00000+0  17418-3 0  9990
2 56934  97.6168 270.9392 0007262 114.2452 245.9549 15.34130033161856
BLACKJACK ACES-3        
1 56950U 23084U   26131.13312769  .00003298  00000+0  16369-3 0  9996
2 56950  97.6155 266.0607 0004334 118.5476 241.6195 15.18416267161549
BLACKJACK ACES-2        
1 56955U 23084Z   26130.94185357  .00004278  00000+0  21219-3 0  9999
2 56955  97.6151 265.9537 0002633 102.7793 257.3735 15.18272582161529
BLACKJACK ACES-1        
1 56956U 23084AA  26131.19294280  .00004587  00000+0  22676-3 0  9995
2 56956  97.6142 265.9857 0002173  91.3410 268.8073 15.18351508111289
ION SCV-011             
1 56957U 23084AB  26131.08216344  .00003565  00000+0  13173-3 0  9996
2 56957  98.1389 314.9356 0007736 157.6748 202.4827 15.28474713160143
GHOST-3                 
1 56958U 23084AC  26130.97619144  .00011913  00000+0  24038-3 0  9997
2 56958  97.6168 277.6010 0007182  74.8441 285.3602 15.46665012162260
TOMORROW-R2             
1 56962U 23084AG  26131.17107102  .00137975  00000+0  50876-3 0  9997
2 56962  97.5935 290.6921 0001282 306.9806  53.1348 15.87854557163157
AFR-1                   
1 56964U 23084AJ  26131.17604133  .00003235  00000+0  12025-3 0  9990
2 56964  97.6217 266.9982 0012009 107.8306 252.4243 15.28229880161570
METEOR-M2 3             
1 57166U 23091A   26131.21072601 -.00000015  00000+0  12193-4 0  9998
2 57166  98.6110 186.9403 0002769 280.3687  79.7180 14.24043555149257
UMKA 1 (RS40S)          
1 57172U 23091G   26131.17665898  .00003876  00000+0  18088-3 0  9991
2 57172  97.5075 190.0238 0011429 244.8930 115.1119 15.20390618158386
2023-091H               
1 57173U 23091H   26131.18763537  .00007221  00000+0  26821-3 0  9994
2 57173  97.5070 194.1000 0008775 237.7059 122.3330 15.27833319158659
2023-091J               
1 57174U 23091J   26131.17165042  .00002305  00000+0  13162-3 0  9993
2 57174  97.5083 184.7974 0011645 276.0460  83.9445 15.13676710158037
CUBEBEL 2 (EU11S)       
1 57175U 23091K   26131.20005564  .00007318  00000+0  26808-3 0  9990
2 57175  97.5073 194.1091 0008792 239.5277 120.5094 15.28283727158655
SITRO-AIS 5 (KATYS)     
1 57176U 23091L   26131.15919861  .00007322  00000+0  26555-3 0  9993
2 57176  97.5081 194.7281 0010576 226.6994 133.3364 15.28600652158683
ZORKIY-2M 1             
1 57177U 23091M   26131.16435912  .00004175  00000+0  19441-3 0  9994
2 57177  97.5115 190.2566 0012077 241.6844 118.3174 15.20418705158374
CUBESX-HSE 3 (RS42S)    
1 57178U 23091N   26131.17363675  .00007993  00000+0  27516-3 0  9995
2 57178  97.5111 196.3178 0010260 215.7704 144.2851 15.30274404158766
MONITOR-3 (RS58S)       
1 57180U 23091Q   26131.18444947  .00006617  00000+0  25146-3 0  9990
2 57180  97.5105 194.3773 0010898 223.5735 136.4644 15.27092082158645
MONITOR-4 (RS57S)       
1 57182U 23091S   26131.16580794  .00006266  00000+0  23759-3 0  9999
2 57182  97.5099 194.3273 0010865 224.1261 135.9112 15.27188742158642
MONITOR-2 (RS39S)       
1 57184U 23091U   26131.15253382  .00002983  00000+0  14759-3 0  9992
2 57184  97.5098 189.6798 0009969 236.5664 123.4617 15.18562659158330
SVYATOBOR 1 (RS60S)     
1 57187U 23091X   26131.14835885  .00005544  00000+0  21845-3 0  9998
2 57187  97.5111 194.7755 0008773 213.9467 146.1210 15.25977617158660
